NORAD_CAT_ID,OBJECT_NAME,OBJECT_TYPE,EPOCH,MEAN_MOTION,ECCENTRICITY,INCLINATION,RA_OF_ASC_NODE,ARG_OF_PERICENTER,MEAN_ANOMALY,BSTAR,MEAN_MOTION_DOT,MEAN_MOTION_DDOT,TLE_LINE0,TLE_LINE1,TLE_LINE2,SEMIMAJOR_AXIS,PERIOD,APOGEE,PERIGEE,DECAYED
52270.0,STARLINK-3804,PAYLOAD,2022-05-15 14:00:01,15.65713843,0.0001739,53.2175,256.6909,36.2547,244.2024,-0.0075721,-0.00715436,0.0,0 STARLINK-3804,1 52270U 22041K   22135.58335648 -.00715436  00000-0 -75721-2 0  9992,2 52270  53.2175 256.6909 0001739  36.2547 244.2024 15.65713843  4987,6749.324000000001,91.971,372.362,370.015,0.0
52270.0,STARLINK-3804,PAYLOAD,2022-05-15 22:00:00,15.65205918,0.0001438,53.2173,255.0602,38.7434,321.2699,-0.0077570999999999,-0.00717795,0.0,0 STARLINK-3804,1 52270U 22041K   22135.91667824 -.00717795  00000-0 -77571-2 0  9998,2 52270  53.2173 255.0602 0001438  38.7434 321.2699 15.65205918  1302,6750.784000000002,92.001,373.619,371.67800000000005,0.0
52270.0,STARLINK-3804,PAYLOAD,2022-05-16 12:00:00,15.64312921,0.0002103,53.2176,252.2094,21.2429,26.6356,-0.0080326,-0.00717373,0.0,0 STARLINK-3804,1 52270U 22041K   22136.50001157 -.00717373  00000-0 -80326-2 0  9999,2 52270  53.2176 252.2094 0002103  21.2429  26.6356 15.64312921  5122,6753.353,92.053,376.638,373.797,0.0
52270.0,STARLINK-3804,PAYLOAD,2022-05-16 14:00:01,15.64184241,0.0002263,53.2173,251.8029,24.6682,132.7522,-0.0080521,-0.00715629,0.0,0 STARLINK-3804,1 52270U 22041K   22136.58334491 -.00715629  00000-0 -80521-2 0  9996,2 52270  53.2173 251.8029 0002263  24.6682 132.7522 15.64184241  1309,6753.723000000001,92.061,377.116,374.06,0.0
52270.0,STARLINK-3804,PAYLOAD,2022-05-16 22:00:00,15.63676301,0.0001593,53.2172,250.1757,42.2679,192.9361,-0.0082606,-0.00719018,0.0,0 STARLINK-3804,1 52270U 22041K   22136.91667824 -.00719018  00000-0 -82606-2 0  9994,2 52270  53.2172 250.1757 0001593  42.2679 192.9361 15.63676301  1306,6755.185,92.091,378.126,375.974,0.0
52270.0,STARLINK-3804,PAYLOAD,2022-05-17 12:00:00,15.62782243,0.0001913,53.2174,247.3315,28.7055,251.1463,-0.0085087999999999,-0.00715307,0.0,0 STARLINK-3804,1 52270U 22041K   22137.50001157 -.00715307  00000-0 -85088-2 0  9995,2 52270  53.2174 247.3315 0001913  28.7055 251.1463 15.62782243  5283,6757.762,92.143,380.919,378.334,0.0
52270.0,STARLINK-3804,PAYLOAD,2022-05-17 14:00:01,15.62656573,0.0001982,53.2174,246.926,24.6538,4.3445,-0.0085969,-0.00718847,0.0,0 STARLINK-3804,1 52270U 22041K   22137.58335648 -.00718847  00000-0 -85969-2 0  9998,2 52270  53.2174 246.9260 0001982  24.6538   4.3445 15.62656573  1307,6758.124,92.151,381.328,378.649,0.0
52270.0,STARLINK-3804,PAYLOAD,2022-05-17 22:00:01,15.62144919,0.0001476,53.2173,245.3022,41.0466,63.8983,-0.0087304,-0.00715662,0.0,0 STARLINK-3804,1 52270U 22041K   22137.91668981 -.00715662  00000-0 -87304-2 0  9991,2 52270  53.2173 245.3022 0001476  41.0466  63.8983 15.62144919  1309,6759.599,92.181,382.462,380.467,0.0
52270.0,STARLINK-3804,PAYLOAD,2022-05-18 12:00:00,15.61250667,0.0002064,53.2175,242.4648,28.5388,117.772,-0.0089994,-0.00712795,0.0,0 STARLINK-3804,1 52270U 22041K   22138.50001157 -.00712795  00000-0 -89994-2 0  9994,2 52270  53.2175 242.4648 0002064  28.5388 117.7720 15.61250667  5433,6762.18,92.234,385.441,382.65,0.0
52270.0,STARLINK-3804,PAYLOAD,2022-05-18 14:00:01,15.61124701,0.0001965,53.2176,242.0602,31.8438,223.0887,-0.0090816,-0.00715525,0.0,0 STARLINK-3804,1 52270U 22041K   22138.58334491 -.00715525  00000-0 -90816-2 0  9991,2 52270  53.2176 242.0602 0001965  31.8438 223.0887 15.61124701  1308,6762.544,92.241,385.73800000000006,383.08,0.0
52270.0,STARLINK-3804,PAYLOAD,2022-05-18 22:00:00,15.60616008,0.0001634,53.2174,240.44,34.4856,294.5542,-0.009289,-0.00717337,0.0,0 STARLINK-3804,1 52270U 22041K   22138.91667824 -.00717337  00000-0 -92890-2 0  9994,2 52270  53.2174 240.4400 0001634  34.4856 294.5542 15.60616008  1306,6764.014,92.271,386.984,384.773,0.0
52270.0,STARLINK-3804,PAYLOAD,2022-05-19 14:00:01,15.59596754,0.0002236,53.2173,237.2056,20.3065,95.1736,-0.0096697,-0.00718052,0.0,0 STARLINK-3804,1 52270U 22041K   22139.58335648 -.00718052  00000-0 -96697-2 0  9998,2 52270  53.2173 237.2056 0002236  20.3065  95.1736 15.59596754  1304,6766.96,92.332,390.338,387.312,0.0
52270.0,STARLINK-3804,PAYLOAD,2022-05-19 22:00:00,15.59086006,0.0001749,53.2173,235.5889,37.3914,150.2937,-0.0098439,-0.00716828,0.0,0 STARLINK-3804,1 52270U 22041K   22139.91667824 -.00716828  00000-0 -98439-2 0  9994,2 52270  53.2173 235.5889 0001749  37.3914 150.2937 15.59086006  5661,6768.438,92.362,391.487,389.119,0.0
52270.0,STARLINK-3804,PAYLOAD,2022-05-20 14:00:01,15.58066554,0.0001771,53.2175,232.3621,33.1887,297.195,-0.010246,-0.00717646,0.0,0 STARLINK-3804,1 52270U 22041K   22140.58334491 -.00717646  00000-0 -10246-1 0  9998,2 52270  53.2175 232.3621 0001771  33.1887 297.1950 15.58066554  1308,6771.39,92.422,394.454,392.056,0.0
52270.0,STARLINK-3804,PAYLOAD,2022-05-20 22:00:00,15.57555138,0.0001601,53.2174,230.749,30.7081,10.1073,-0.010401,-0.00714767,0.0,0 STARLINK-3804,1 52270U 22041K   22140.91667824 -.00714767  00000-0 -10401-1 0  9998,2 52270  53.2174 230.7490 0001601  30.7081  10.1073 15.57555138  5813,6772.871999999999,92.453,395.822,393.653,0.0
52270.0,STARLINK-3804,PAYLOAD,2022-05-21 06:00:00,15.57044267,0.00019,53.2177,229.1372,30.3846,80.2491,-0.010565,-0.00712468,0.0,0 STARLINK-3804,1 52270U 22041K   22141.25001157 -.00712468  00000-0 -10565-1 0  9994,2 52270  53.2177 229.1372 0001900  30.3846  80.2491 15.57044267  1302,6774.354,92.483,397.506,394.932,0.0
52270.0,STARLINK-3804,PAYLOAD,2022-05-21 14:00:01,15.56534634,0.0002029,53.2175,227.5295,32.4905,147.4119,-0.010784,-0.00713405,0.0,0 STARLINK-3804,1 52270U 22041K   22141.58335648 -.00713405  00000-0 -10784-1 0  9990,2 52270  53.2175 227.5295 0002029  32.4905 147.4119 15.56534634  1302,6775.831999999999,92.513,399.072,396.322,0.0
52270.0,STARLINK-3804,PAYLOAD,2022-05-21 20:00:01,15.56152578,0.0001806,53.2171,226.3224,33.9409,107.3987,-0.010953,-0.00714187,0.0,0 STARLINK-3804,1 52270U 22041K   22141.83334491 -.00714187  00000-0 -10953-1 0  9999,2 52270  53.2171 226.3224 0001806  33.9409 107.3987 15.56152578  5950,6776.941,92.536,400.03,397.582,0.0
52270.0,STARLINK-3804,PAYLOAD,2022-05-21 22:00:00,15.56027139,0.0001688,53.2174,225.9199,40.1025,208.3274,-0.011068,-0.00717947,0.0,0 STARLINK-3804,1 52270U 22041K   22141.91667824 -.00717947  00000-0 -11068-1 0  9992,2 52270  53.2174 225.9199 0001688  40.1025 208.3274 15.56027139  1301,6777.306,92.543,400.315,398.026,0.0
52270.0,STARLINK-3804,PAYLOAD,2022-05-22 14:00:01,15.55006403,0.0001729,53.2174,222.7083,31.6026,352.1726,-0.011468,-0.00716362,0.0,0 STARLINK-3804,1 52270U 22041K   22142.58334491 -.00716362  00000-0 -11468-1 0  9991,2 52270  53.2174 222.7083 0001729  31.6026 352.1726 15.55006403  1300,6780.271,92.604,403.3080000000001,400.964,0.0
52270.0,STARLINK-3804,PAYLOAD,2022-05-22 22:00:01,15.54495125,0.0001751999999999,53.2174,221.1022,31.4063,59.1888,-0.011641,-0.00713802,0.0,0 STARLINK-3804,1 52270U 22041K   22142.91668981 -.00713802  00000-0 -11641-1 0  9991,2 52270  53.2174 221.1022 0001752  31.4063  59.1888 15.54495125  6121,6781.7580000000025,92.635,404.811,402.434,0.0
52270.0,STARLINK-3804,PAYLOAD,2022-05-23 14:00:01,15.53474051,0.0001941,53.2175,217.8978,34.8264,187.3728,-0.012043,-0.00711524,0.0,0 STARLINK-3804,1 52270U 22041K   22143.58334491 -.00711524  00000-0 -12043-1 0  9997,2 52270  53.2175 217.8978 0001941  34.8264 187.3728 15.53474051  1300,6784.729,92.695,407.911,405.277,0.0
52270.0,STARLINK-3804,PAYLOAD,2022-05-23 20:00:01,15.53093069,0.0001709,53.2173,216.6959,39.5744,141.3691,-0.012267,-0.00714429,0.0,0 STARLINK-3804,1 52270U 22041K   22143.83334491 -.00714429  00000-0 -12267-1 0  9990,2 52270  53.2173 216.6959 0001709  39.5744 141.3691 15.53093069  6277,6785.839,92.718,408.86300000000006,406.544,0.0
52270.0,STARLINK-3804,PAYLOAD,2022-05-23 22:00:01,15.52967087,0.0001530999999999,53.2175,216.2952,43.7249,243.4544,-0.012371,-0.00716919,0.0,0 STARLINK-3804,1 52270U 22041K   22143.91668981 -.00716919  00000-0 -12371-1 0  9995,2 52270  53.2175 216.2952 0001531  43.7249 243.4544 15.52967087  1307,6786.206,92.726,409.109,407.032,0.0
52270.0,STARLINK-3804,PAYLOAD,2022-05-24 12:13:12,15.53039233,0.0001363,53.2143,213.4494,29.0605,331.0482,-0.0053661,-0.0032765,0.0,0 STARLINK-3804,1 52270U 22041K   22144.50917042 -.00327650  00000-0 -53661-2 0  9994,2 52270  53.2143 213.4494 0001363  29.0605 331.0482 15.53039233  6379,6785.995,92.721,408.785,406.935,0.0
52270.0,STARLINK-3804,PAYLOAD,2022-05-24 22:00:00,15.51434419,0.0001735,53.2175,211.4995,34.8356,83.3496,-0.0129729999999999,-0.00711715,0.0,0 STARLINK-3804,1 52270U 22041K   22144.91667824 -.00711715  00000-0 -12973-1 0  9998,2 52270  53.2175 211.4995 0001735  34.8356  83.3496 15.51434419  6430,6790.674,92.817,413.717,411.361,0.0
52270.0,STARLINK-3804,PAYLOAD,2022-05-25 14:00:01,15.503605599999998,0.0001845,53.2175,208.3101,39.2751,203.2361,-0.010866,-0.00583152,0.0,0 STARLINK-3804,1 52270U 22041K   22145.58334491 -.00583152  00000-0 -10866-1 0  9994,2 52270  53.2175 208.3101 0001845  39.2751 203.2361 15.50360560  1303,6793.81,92.882,416.92800000000005,414.421,0.0
52270.0,STARLINK-3804,PAYLOAD,2022-05-25 19:08:54,15.5113759,0.00021,53.2145,207.2796,12.6681,347.4382,-0.0056626,-0.00323066,0.0,0 STARLINK-3804,1 52270U 22041K   22145.79784887 -.00323066  00000-0 -56626-2 0  9996,2 52270  53.2145 207.2796 0002100  12.6681 347.4382 15.51137590  5360,6791.54,92.835,414.832,411.979,0.0
52270.0,STARLINK-3804,PAYLOAD,2022-05-25 22:00:00,15.49888073,0.0001625,53.2175,206.7147,42.838,260.9034,-9.2409e-05,-5.693e-05,0.0,0 STARLINK-3804,1 52270U 22041K   22145.91667824 -.00005693  00000-0 -92409-4 0  9995,2 52270  53.2175 206.7147 0001625  42.8380 260.9034 15.49888073  6594,6795.19,92.91,418.159,415.951,0.0
